STARLINK-34759          
1 65096U 25167U   25337.11800435  .00038619  00000+0  13100-2 0  9992
2 65096  53.1589 115.2669 0001372  81.1853 278.9303 15.30180382 18695
STARLINK-34741          
1 65097U 25167V   25337.11482330  .00039775  00000+0  13476-2 0  9993
2 65097  53.1596 115.2460 0001352  76.7317 283.3834 15.30207566 18699
STARLINK-34764          
1 65098U 25167W   25337.11165739  .00054079  00000+0  18242-2 0  9995
2 65098  53.1603 115.2262 0001364  79.1779 280.9375 15.30209374 18693
STARLINK-34815          
1 65099U 25167X   25336.72082234  .00022489  00000+0  76906-3 0  9992
2 65099  53.1591 117.0539 0000984  65.6295 294.4808 15.30202844 18637
STARLINK-34814          
1 65100U 25167Y   25336.65128483  .00027194  00000+0  92698-3 0  9998
2 65100  53.1601 117.3302 0001118 102.3455 257.7671 15.30198252 18626
STARLINK-34285          
1 65101U 25167Z   25337.10532507  .00062267  00000+0  20963-2 0  9991
2 65101  53.1605 115.1861 0000961  76.8283 283.2825 15.30209266 18696
STARLINK-34857          
1 65102U 25167AA  25337.09794225  .00034054  00000+0  11554-2 0  9996
2 65102  53.1596 115.1389 0001230  92.2234 267.8908 15.30233498 18693
STARLINK-34887          
1 65103U 25167AB  25336.70815827  .00030499  00000+0  10378-2 0  9998
2 65103  53.1602 116.9740 0001217  74.3208 285.7927 15.30195416 18630
STARLINK-34481          
1 65104U 25167AC  25337.29071642  .00022270  00000+0  76162-3 0  9995
2 65104  53.1573 114.2083 0001194  94.5293 265.5844 15.30206351 18726
STARLINK-34545          
1 65105U 25167AD  25337.09161294  .00027922  00000+0  95124-3 0  9995
2 65105  53.1595 115.0963 0002308 108.0276 252.0976 15.30201481 18699
STARLINK-34956          
1 65174U 25175A   25337.17963685  .00001600  00000+0  11508-3 0  9992
2 65174  97.6038 207.4551 0002418  88.4295 271.7209 15.05652147 18084
STARLINK-34949          
1 65175U 25175B   25337.17687018  .00005206  00000+0  36471-3 0  9998
2 65175  97.6040 207.4592 0002599  91.9035 268.2489 15.05652545 18122
STARLINK-34707          
1 65176U 25175C   25337.24056179  .00002939  00000+0  20778-3 0  9998
2 65176  97.6044 207.5278 0002481  87.4743 272.6768 15.05650605 18129
STARLINK-34967          
1 65177U 25175D   25337.23781212  .00005339  00000+0  37407-3 0  9995
2 65177  97.6043 207.5303 0003268  80.6539 279.5057 15.05638141 18128
STARLINK-34929          
1 65178U 25175E   25337.23502363  .00001990  00000+0  14209-3 0  9998
2 65178  97.6043 207.5352 0002822  83.6936 276.4612 15.05650836 18120
STARLINK-34932          
1 65179U 25175F   25337.29593579 -.00009627  00000+0 -66394-3 0  9993
2 65179  97.6030 207.6092 0003143  85.8659 274.2927 15.05641538 18137
