[{"OBJECT_NAME":"STARLINK-34759","OBJECT_ID":"2025-167U","EPOCH":"2025-12-03T02:49:55.575840","MEAN_MOTION":15.30180382,"ECCENTRICITY":0.00013722,"INCLINATION":53.1589,"RA_OF_ASC_NODE":115.2669,"ARG_OF_PERICENTER":81.1853,"MEAN_ANOMALY":278.9303,"EPHEMERIS_TYPE":0,"CLASSIFICATION_TYPE":"U","NORAD_CAT_ID":65096,"ELEMENT_SET_NO":999,"REV_AT_EPOCH":1869,"BSTAR":0.0013100433,"MEAN_MOTION_DOT":0.00038619,"MEAN_MOTION_DDOT":0},{"OBJECT_NAME":"STARLINK-34741","OBJECT_ID":"2025-167V","EPOCH":"2025-12-03T02:45:20.733120","MEAN_MOTION":15.30207566,"ECCENTRICITY":0.00013528,"INCLINATION":53.1596,"RA_OF_ASC_NODE":115.246,"ARG_OF_PERICENTER":76.7317,"MEAN_ANOMALY":283.3834,"EPHEMERIS_TYPE":0,"CLASSIFICATION_TYPE":"U","NORAD_CAT_ID":65097,"ELEMENT_SET_NO":999,"REV_AT_EPOCH":1869,"BSTAR":0.0013475564,"MEAN_MOTION_DOT":0.00039775,"MEAN_MOTION_DDOT":0},{"OBJECT_NAME":"STARLINK-34764","OBJECT_ID":"2025-167W","EPOCH":"2025-12-03T02:40:47.198496","MEAN_MOTION":15.30209374,"ECCENTRICITY":0.00013648,"INCLINATION":53.1603,"RA_OF_ASC_NODE":115.2262,"ARG_OF_PERICENTER":79.1779,"MEAN_ANOMALY":280.9375,"EPHEMERIS_TYPE":0,"CLASSIFICATION_TYPE":"U","NORAD_CAT_ID":65098,"ELEMENT_SET_NO":999,"REV_AT_EPOCH":1869,"BSTAR":0.0018242324,"MEAN_MOTION_DOT":0.00054079,"MEAN_MOTION_DDOT":0},{"OBJECT_NAME":"STARLINK-34815","OBJECT_ID":"2025-167X","EPOCH":"2025-12-02T17:17:59.050176","MEAN_MOTION":15.30202844,"ECCENTRICITY":9.844e-5,"INCLINATION":53.1591,"RA_OF_ASC_NODE":117.0539,"ARG_OF_PERICENTER":65.6295,"MEAN_ANOMALY":294.4808,"EPHEMERIS_TYPE":0,"CLASSIFICATION_TYPE":"U","NORAD_CAT_ID":65099,"ELEMENT_SET_NO":999,"REV_AT_EPOCH":1863,"BSTAR":0.00076906248,"MEAN_MOTION_DOT":0.00022489,"MEAN_MOTION_DDOT":0},{"OBJECT_NAME":"STARLINK-34814","OBJECT_ID":"2025-167Y","EPOCH":"2025-12-02T15:37:51.009312","MEAN_MOTION":15.30198252,"ECCENTRICITY":0.0001118,"INCLINATION":53.1601,"RA_OF_ASC_NODE":117.3302,"ARG_OF_PERICENTER":102.3455,"MEAN_ANOMALY":257.7671,"EPHEMERIS_TYPE":0,"CLASSIFICATION_TYPE":"U","NORAD_CAT_ID":65100,"ELEMENT_SET_NO":999,"REV_AT_EPOCH":1862,"BSTAR":0.00092697698,"MEAN_MOTION_DOT":0.00027194,"MEAN_MOTION_DDOT":0},{"OBJECT_NAME":"STARLINK-34285","OBJECT_ID":"2025-167Z","EPOCH":"2025-12-03T02:31:40.086048","MEAN_MOTION":15.30209266,"ECCENTRICITY":9.612e-5,"INCLINATION":53.1605,"RA_OF_ASC_NODE":115.1861,"ARG_OF_PERICENTER":76.8283,"MEAN_ANOMALY":283.2825,"EPHEMERIS_TYPE":0,"CLASSIFICATION_TYPE":"U","NORAD_CAT_ID":65101,"ELEMENT_SET_NO":999,"REV_AT_EPOCH":1869,"BSTAR":0.0020963039,"MEAN_MOTION_DOT":0.00062267,"MEAN_MOTION_DDOT":0},{"OBJECT_NAME":"STARLINK-34857","OBJECT_ID":"2025-167AA","EPOCH":"2025-12-03T02:21:02.210400","MEAN_MOTION":15.30233498,"ECCENTRICITY":0.00012303,"INCLINATION":53.1596,"RA_OF_ASC_NODE":115.1389,"ARG_OF_PERICENTER":92.2234,"MEAN_ANOMALY":267.8908,"EPHEMERIS_TYPE":0,"CLASSIFICATION_TYPE":"U","NORAD_CAT_ID":65102,"ELEMENT_SET_NO":999,"REV_AT_EPOCH":1869,"BSTAR":0.0011554469,"MEAN_MOTION_DOT":0.00034054,"MEAN_MOTION_DDOT":0},{"OBJECT_NAME":"STARLINK-34887","OBJECT_ID":"2025-167AB","EPOCH":"2025-12-02T16:59:44.874528","MEAN_MOTION":15.30195416,"ECCENTRICITY":0.00012175,"INCLINATION":53.1602,"RA_OF_ASC_NODE":116.974,"ARG_OF_PERICENTER":74.3208,"MEAN_ANOMALY":285.7927,"EPHEMERIS_TYPE":0,"CLASSIFICATION_TYPE":"U","NORAD_CAT_ID":65103,"ELEMENT_SET_NO":999,"REV_AT_EPOCH":1863,"BSTAR":0.0010377888,"MEAN_MOTION_DOT":0.00030499,"MEAN_MOTION_DDOT":0},{"OBJECT_NAME":"STARLINK-34481","OBJECT_ID":"2025-167AC","EPOCH":"2025-12-03T06:58:37.898688","MEAN_MOTION":15.30206351,"ECCENTRICITY":0.00011943,"INCLINATION":53.1573,"RA_OF_ASC_NODE":114.2083,"ARG_OF_PERICENTER":94.5293,"MEAN_ANOMALY":265.5844,"EPHEMERIS_TYPE":0,"CLASSIFICATION_TYPE":"U","NORAD_CAT_ID":65104,"ELEMENT_SET_NO":999,"REV_AT_EPOCH":1872,"BSTAR":0.0007616234,"MEAN_MOTION_DOT":0.0002227,"MEAN_MOTION_DDOT":0},{"OBJECT_NAME":"STARLINK-34545","OBJECT_ID":"2025-167AD","EPOCH":"2025-12-03T02:11:55.358016","MEAN_MOTION":15.30201481,"ECCENTRICITY":0.00023083,"INCLINATION":53.1595,"RA_OF_ASC_NODE":115.0963,"ARG_OF_PERICENTER":108.0276,"MEAN_ANOMALY":252.0976,"EPHEMERIS_TYPE":0,"CLASSIFICATION_TYPE":"U","NORAD_CAT_ID":65105,"ELEMENT_SET_NO":999,"REV_AT_EPOCH":1869,"BSTAR":0.00095124198,"MEAN_MOTION_DOT":0.00027922,"MEAN_MOTION_DDOT":0},{"OBJECT_NAME":"STARLINK-34956","OBJECT_ID":"2025-175A","EPOCH":"2025-12-03T04:18:40.623840","MEAN_MOTION":15.05652147,"ECCENTRICITY":0.0002418,"INCLINATION":97.6038,"RA_OF_ASC_NODE":207.4551,"ARG_OF_PERICENTER":88.4295,"MEAN_ANOMALY":271.7209,"EPHEMERIS_TYPE":0,"CLASSIFICATION_TYPE":"U","NORAD_CAT_ID":65174,"ELEMENT_SET_NO":999,"REV_AT_EPOCH":1808,"BSTAR":0.00011508312,"MEAN_MOTION_DOT":1.6e-5,"MEAN_MOTION_DDOT":0},{"OBJECT_NAME":"STARLINK-34949","OBJECT_ID":"2025-175B","EPOCH":"2025-12-03T04:14:41.583552","MEAN_MOTION":15.05652545,"ECCENTRICITY":0.0002599,"INCLINATION":97.604,"RA_OF_ASC_NODE":207.4592,"ARG_OF_PERICENTER":91.9035,"MEAN_ANOMALY":268.2489,"EPHEMERIS_TYPE":0,"CLASSIFICATION_TYPE":"U","NORAD_CAT_ID":65175,"ELEMENT_SET_NO":999,"REV_AT_EPOCH":1812,"BSTAR":0.00036471049,"MEAN_MOTION_DOT":5.206e-5,"MEAN_MOTION_DDOT":0},{"OBJECT_NAME":"STARLINK-34707","OBJECT_ID":"2025-175C","EPOCH":"2025-12-03T05:46:24.538656","MEAN_MOTION":15.05650605,"ECCENTRICITY":0.00024813,"INCLINATION":97.6044,"RA_OF_ASC_NODE":207.5278,"ARG_OF_PERICENTER":87.4743,"MEAN_ANOMALY":272.6768,"EPHEMERIS_TYPE":0,"CLASSIFICATION_TYPE":"U","NORAD_CAT_ID":65176,"ELEMENT_SET_NO":999,"REV_AT_EPOCH":1812,"BSTAR":0.00020777827,"MEAN_MOTION_DOT":2.939e-5,"MEAN_MOTION_DDOT":0},{"OBJECT_NAME":"STARLINK-34967","OBJECT_ID":"2025-175D","EPOCH":"2025-12-03T05:42:26.967168","MEAN_MOTION":15.05638141,"ECCENTRICITY":0.00032686,"INCLINATION":97.6043,"RA_OF_ASC_NODE":207.5303,"ARG_OF_PERICENTER":80.6539,"MEAN_ANOMALY":279.5057,"EPHEMERIS_TYPE":0,"CLASSIFICATION_TYPE":"U","NORAD_CAT_ID":65177,"ELEMENT_SET_NO":999,"REV_AT_EPOCH":1812,"BSTAR":0.00037406739,"MEAN_MOTION_DOT":5.339e-5,"MEAN_MOTION_DDOT":0},{"OBJECT_NAME":"STARLINK-34929","OBJECT_ID":"2025-175E","EPOCH":"2025-12-03T05:38:26.041632","MEAN_MOTION":15.05650836,"ECCENTRICITY":0.00028225,"INCLINATION":97.6043,"RA_OF_ASC_NODE":207.5352,"ARG_OF_PERICENTER":83.6936,"MEAN_ANOMALY":276.4612,"EPHEMERIS_TYPE":0,"CLASSIFICATION_TYPE":"U","NORAD_CAT_ID":65178,"ELEMENT_SET_NO":999,"REV_AT_EPOCH":1812,"BSTAR":0.00014208974,"MEAN_MOTION_DOT":1.99e-5,"MEAN_MOTION_DDOT":0},{"OBJECT_NAME":"STARLINK-34932","OBJECT_ID":"2025-175F","EPOCH":"2025-12-03T07:06:08.852256","MEAN_MOTION":15.05641538,"ECCENTRICITY":0.00031438,"INCLINATION":97.603,"RA_OF_ASC_NODE":207.6092,"ARG_OF_PERICENTER":85.8659,"MEAN_ANOMALY":274.2927,"EPHEMERIS_TYPE":0,"CLASSIFICATION_TYPE":"U","NORAD_CAT_ID":65179,"ELEMENT_SET_NO":999,"REV_AT_EPOCH":1813,"BSTAR":-0.00066394081,"MEAN_MOTION_DOT":-9.627e-5,"MEAN_MOTION_DDOT":0}]
